#aV2011 10 25  0  0   .00000000      96 DD+AD WGS84 FIT  NGA
## 1659 172800.00000000   900.00000000 55859  .0000000000000
+   31     1  2  3  4  5  6  7  8  9 10 11 12 13 14 15 16 17
+         18 19 20 21 22 23 25 26 27 28 29 30 31 32  0  0  0
+          0  0  0  0  0  0  0  0  0  0  0  0  0  0  0  0  0
+          0  0  0  0  0  0  0  0  0  0  0  0  0  0  0  0  0
+          0  0  0  0  0  0  0  0  0  0  0  0  0  0  0  0  0
++         0  0  0  0  0  0  0  0  0  0  0  0  0  0  0  0  0
++         0  0  0  0  0  0  0  0  0  0  0  0  0  0  0  0  0
++         0  0  0  0  0  0  0  0  0  0  0  0  0  0  0  0  0
++         0  0  0  0  0  0  0  0  0  0  0  0  0  0  0  0  0
++         0  0  0  0  0  0  0  0  0  0  0  0  0  0  0  0  0
%c cc cc ccc ccc cccc cccc cccc cccc ccccc ccccc ccccc ccccc
%c cc cc ccc ccc cccc cccc cccc cccc ccccc ccccc ccccc ccccc
%f  0.0000000  0.000000000  0.00000000000  0.000000000000000
%f  0.0000000  0.000000000  0.00000000000  0.000000000000000
%i    0    0    0    0      0      0      0      0         0
%i    0    0    0    0      0      0      0      0         0
/*      NGA, ST. LOUIS,MO.                                  
/*   EPHEMERIS COMPUTED FROM  3 DAYS OF DATA                
/* CCCCCCCCCCCCCCCCCCCCCCCCCCCCCCCCCCCCCCCCCCCCCCCCCCCCCCCCC
/* CCCCCCCCCCCCCCCCCCCCCCCCCCCCCCCCCCCCCCCCCCCCCCCCCCCCCCCCC
*  2011 10 25 18 45   .00000000                                                 
P  1  21089.845573  10454.408857  12293.317158     52.648533                    
V  1   8771.300348  13147.872985 -26195.560733       .261428                    
P  2 -12636.469404 -22288.493826   7984.834251    362.478944                    
V  2   8824.611921   5371.087505  28743.418966       .018012                    
P  3   7998.850227  14184.124306 -21456.562166    786.158092                    
V  3 -24759.765221   8890.573476  -3129.358785       .051408                    
P  4    307.600726 -19312.226588  17854.867969    271.223763                    
V  4  17156.788669  15963.724585  17091.625071       .113134                    
P  5  -4828.481952 -20896.958628 -15604.177830   -236.517299                    
V  5   8261.915122 -18188.938711  21941.143233      -.050573                    
P  6   2716.860048  15477.935300 -21268.143561    -42.954775                    
V  6 -26583.007579   6771.760067   1775.964699       .067399                    
P  7  16237.713981  -2873.739184 -20858.827122     33.696136                    
V  7  16885.771557  20331.038845  10098.808805       .020574                    
P  8   9177.349959 -11485.120159 -22013.338445       .035132                    
V  8  17111.583297  22223.731170  -5007.275011      -.000102                    
P  9 -20618.743368 -14092.448415   8451.133233    114.093639                    
V  9  -6267.574024  -9836.915081 -29803.346119       .024299                    
P 10   9053.625844 -24732.416910    439.377878    -17.211223                    
V 10   3090.268376   1973.917538  31716.968663      -.010968                    
P 11  23504.139824  12224.969263   3264.827120   -197.983473                    
V 11   1226.919152   6478.857406 -29477.408701      -.034272                    
P 12 -14195.171975  -4416.101350  22014.593648     30.707202                    
V 12   9121.623407 -26354.165813    761.352123       .023268                    
P 13  26108.462752  -4651.265400  -2289.652851    244.830836                    
V 13   2929.241429   1531.377308  32113.342987      -.019359                    
P 14 -13580.047154  14163.136340  18007.738143    178.394213                    
V 14 -22470.269374   1952.771892 -18806.085245       .016597                    
P 15 -21219.695065  -6106.302145 -14883.870041   -101.385199                    
V 15  17901.655107  -6386.480835 -22703.784569       .012528                    
P 16   4146.505072  20392.065482 -16312.543160   -205.335519                    
V 16  -8851.635920  18924.642732  21673.477739      -.020836                    
P 17  13865.573929 -14670.685512  17281.067067    168.951379                    
V 17  21741.937924  -1962.382403 -19506.266464      -.017922                    
P 18 -16228.816362  15047.601746 -14076.150373    163.889019                    
V 18   3108.201439 -18677.546691 -23363.559021       .018631                    
P 19  18854.932015   9359.956146 -16443.930885   -198.012036                    
V 19 -20338.935525   4112.900659 -20658.599582      -.039579                    
P 20  15528.505821   2925.668804  21197.475810     54.966585                    
V 20  -7261.704178  26400.115963   1733.346400       .006325                    
P 21 -14535.523290   6842.644574 -20776.493919   -180.231092                    
V 21 -17832.183326 -20861.478757   4895.199919      -.024648                    
P 22 -10239.856886  24322.107024  -2248.001237    143.748194                    
V 22  -2658.557302  -4195.289793 -30941.918148      -.000133                    
P 23  25626.470698    445.390105   7676.565821    264.927055                    
V 23  -8998.642947   4099.542071  29543.239066      -.031936                    
P 25 -16456.517649   8047.488223  19194.372658     25.054310                    
V 25   6130.973059 -23677.486202  15189.887441       .016972                    
P 26 -10130.110947 -13074.269302 -21467.648537   -203.061282                    
V 26  25479.963268  -3532.785405  -9780.378872      -.132404                    
P 27 -20292.863003 -17151.619844   3904.856249    318.838747                    
V 27  -1605.284260  -4146.023202 -31465.239479       .039141                    
P 28  12236.888171 -22763.257177  -4980.317841     78.590761                    
V 28   -109.726853   7483.353636 -31420.317154       .031689                    
P 29 -25959.131993   5314.440385  -1415.993111    251.597040                    
V 29  -2312.583852  -2474.394687  31737.182857       .033559                    
P 30  -8869.277415  24517.417823   4800.941146     62.682981                    
V 30  -1404.470184  -7031.882477  30877.349880      -.082362                    
P 31   3136.321003  20559.966367  16593.777186    160.388876                    
V 31 -14743.390547 -14653.338340  21410.768816       .052829                    
P 32  10782.712357  12703.805504  21024.824589   -351.253179                    
V 32 -10799.855678  23708.201674  -8453.046681      -.061243                    
EOF
